1 69696U          24153.37500000  .00003539  00000-0  14519-3 0 00002
2 69696 097.4114 160.3432 0013550 241.9278 117.7028 15.24123859000017